[Satellite]
VERSION=1.1
NAME=COSMOS 1544
NICKNAME=COSMOS 1544
TLE1=1 14819U 84027A   18020.83958644  .00001080  00000-0  40042-4 0  9995
TLE2=2 14819  82.4843 168.9239 0013930   0.7068 359.4188 15.26431100848774
